CCSDS_OMM_VERS = 2.0
CREATION_DATE  = 
ORIGINATOR     = 

OBJECT_NAME    = E-KAGAKU-1
OBJECT_ID      = 1998-067XQ
CENTER_NAME    = EARTH
REF_FRAME      = TEME
TIME_SYSTEM    = UTC
MEAN_ELEMENT_THEORY = SGP/SGP4

EPOCH          = 2026-03-14T21:24:23.234112
MEAN_MOTION    = 15.82674081
ECCENTRICITY   = .00055114
INCLINATION    = 51.6229
RA_OF_ASC_NODE = 30.3476
ARG_OF_PERICENTER = 110.0457
MEAN_ANOMALY   = 250.1139

EPHEMERIS_TYPE = 0
CLASSIFICATION_TYPE = U
NORAD_CAT_ID   = 65943
ELEMENT_SET_NO = 999
REV_AT_EPOCH   = 2432
BSTAR          = .12824973E-2
MEAN_MOTION_DOT = .284438E-2
MEAN_MOTION_DDOT = 0

CCSDS_OMM_VERS = 2.0
CREATION_DATE  = 
ORIGINATOR     = 

OBJECT_NAME    = HRC MONOBLOCK CAMERA
OBJECT_ID      = 1998-067XR
CENTER_NAME    = EARTH
REF_FRAME      = TEME
TIME_SYSTEM    = UTC
MEAN_ELEMENT_THEORY = SGP/SGP4

EPOCH          = 2026-03-14T22:40:31.179648
MEAN_MOTION    = 15.62833336
ECCENTRICITY   = .00037942
INCLINATION    = 51.6276
RA_OF_ASC_NODE = 38.9988
ARG_OF_PERICENTER = 115.9120
MEAN_ANOMALY   = 244.2265

EPHEMERIS_TYPE = 0
CLASSIFICATION_TYPE = U
NORAD_CAT_ID   = 66052
ELEMENT_SET_NO = 999
REV_AT_EPOCH   = 2321
BSTAR          = .67820314E-3
MEAN_MOTION_DOT = .62336E-3
MEAN_MOTION_DDOT = 0

CCSDS_OMM_VERS = 2.0
CREATION_DATE  = 
ORIGINATOR     = 

OBJECT_NAME    = HTV-X1
OBJECT_ID      = 2025-241A
CENTER_NAME    = EARTH
REF_FRAME      = TEME
TIME_SYSTEM    = UTC
MEAN_ELEMENT_THEORY = SGP/SGP4

EPOCH          = 2026-03-14T08:15:41.723424
MEAN_MOTION    = 15.22909432
ECCENTRICITY   = .00057393
INCLINATION    = 51.6357
RA_OF_ASC_NODE = 50.7100
ARG_OF_PERICENTER = 187.3646
MEAN_ANOMALY   = 172.7248

EPHEMERIS_TYPE = 0
CLASSIFICATION_TYPE = U
NORAD_CAT_ID   = 66174
ELEMENT_SET_NO = 999
REV_AT_EPOCH   = 2166
BSTAR          = .55060191E-3
MEAN_MOTION_DOT = .12784E-3
MEAN_MOTION_DDOT = 0

CCSDS_OMM_VERS = 2.0
CREATION_DATE  = 
ORIGINATOR     = 

OBJECT_NAME    = SZ-21 MODULE
OBJECT_ID      = 2025-246C
CENTER_NAME    = EARTH
REF_FRAME      = TEME
TIME_SYSTEM    = UTC
MEAN_ELEMENT_THEORY = SGP/SGP4

EPOCH          = 2026-03-14T14:14:26.593440
MEAN_MOTION    = 15.68965402
ECCENTRICITY   = .00009103
INCLINATION    = 41.4735
RA_OF_ASC_NODE = 173.1648
ARG_OF_PERICENTER = 309.7124
MEAN_ANOMALY   = 50.3637

EPHEMERIS_TYPE = 0
CLASSIFICATION_TYPE = U
NORAD_CAT_ID   = 66515
ELEMENT_SET_NO = 999
REV_AT_EPOCH   = 1884
BSTAR          = .41125442E-3
MEAN_MOTION_DOT = .48778E-3
MEAN_MOTION_DDOT = 0

CCSDS_OMM_VERS = 2.0
CREATION_DATE  = 
ORIGINATOR     = 

OBJECT_NAME    = SHENZHOU-22
OBJECT_ID      = 2025-272A
CENTER_NAME    = EARTH
REF_FRAME      = TEME
TIME_SYSTEM    = UTC
MEAN_ELEMENT_THEORY = SGP/SGP4

EPOCH          = 2026-03-14T00:03:53.258400
MEAN_MOTION    = 15.60904690
ECCENTRICITY   = .0006689
INCLINATION    = 41.4663
RA_OF_ASC_NODE = 181.9138
ARG_OF_PERICENTER = 299.3968
MEAN_ANOMALY   = 60.6202

EPHEMERIS_TYPE = 0
CLASSIFICATION_TYPE = U
NORAD_CAT_ID   = 66645
ELEMENT_SET_NO = 999
REV_AT_EPOCH   = 26752
BSTAR          = .34787289E-3
MEAN_MOTION_DOT = .29757E-3
MEAN_MOTION_DDOT = 0

CCSDS_OMM_VERS = 2.0
CREATION_DATE  = 
ORIGINATOR     = 

OBJECT_NAME    = SOYUZ-MS 28
OBJECT_ID      = 2025-275A
CENTER_NAME    = EARTH
REF_FRAME      = TEME
TIME_SYSTEM    = UTC
MEAN_ELEMENT_THEORY = SGP/SGP4

EPOCH          = 2026-03-14T19:19:28.771104
MEAN_MOTION    = 15.48281436
ECCENTRICITY   = .00063712
INCLINATION    = 51.6329
RA_OF_ASC_NODE = 47.0659
ARG_OF_PERICENTER = 190.9724
MEAN_ANOMALY   = 169.1126

EPHEMERIS_TYPE = 0
CLASSIFICATION_TYPE = U
NORAD_CAT_ID   = 66664
ELEMENT_SET_NO = 999
REV_AT_EPOCH   = 55452
BSTAR          = .20105253E-3
MEAN_MOTION_DOT = .10373E-3
MEAN_MOTION_DDOT = 0

CCSDS_OMM_VERS = 2.0
CREATION_DATE  = 
ORIGINATOR     = 

OBJECT_NAME    = DUPLEX
OBJECT_ID      = 1998-067XS
CENTER_NAME    = EARTH
REF_FRAME      = TEME
TIME_SYSTEM    = UTC
MEAN_ELEMENT_THEORY = SGP/SGP4

EPOCH          = 2026-03-14T21:58:11.436960
MEAN_MOTION    = 15.56591153
ECCENTRICITY   = .0002739
INCLINATION    = 51.6290
RA_OF_ASC_NODE = 43.3045
ARG_OF_PERICENTER = 136.2509
MEAN_ANOMALY   = 223.8700

EPHEMERIS_TYPE = 0
CLASSIFICATION_TYPE = U
NORAD_CAT_ID   = 66906
ELEMENT_SET_NO = 999
REV_AT_EPOCH   = 1594
BSTAR          = .50353932E-3
MEAN_MOTION_DOT = .36173E-3
MEAN_MOTION_DDOT = 0

CCSDS_OMM_VERS = 2.0
CREATION_DATE  = 
ORIGINATOR     = 

OBJECT_NAME    = ISS OBJECT XT
OBJECT_ID      = 1998-067XT
CENTER_NAME    = EARTH
REF_FRAME      = TEME
TIME_SYSTEM    = UTC
MEAN_ELEMENT_THEORY = SGP/SGP4

EPOCH          = 2026-03-14T22:17:50.973216
MEAN_MOTION    = 15.71125912
ECCENTRICITY   = .00046929
INCLINATION    = 51.6247
RA_OF_ASC_NODE = 38.8754
ARG_OF_PERICENTER = 114.9023
MEAN_ANOMALY   = 245.2462

EPHEMERIS_TYPE = 0
CLASSIFICATION_TYPE = U
NORAD_CAT_ID   = 66907
ELEMENT_SET_NO = 999
REV_AT_EPOCH   = 1600
BSTAR          = .15762343E-2
MEAN_MOTION_DOT = .207522E-2
MEAN_MOTION_DDOT = 0

CCSDS_OMM_VERS = 2.0
CREATION_DATE  = 
ORIGINATOR     = 

OBJECT_NAME    = ISS OBJECT XU
OBJECT_ID      = 1998-067XU
CENTER_NAME    = EARTH
REF_FRAME      = TEME
TIME_SYSTEM    = UTC
MEAN_ELEMENT_THEORY = SGP/SGP4

EPOCH          = 2026-03-14T22:14:37.346496
MEAN_MOTION    = 15.71267428
ECCENTRICITY   = .00049604
INCLINATION    = 51.6241
RA_OF_ASC_NODE = 38.8570
ARG_OF_PERICENTER = 116.2643
MEAN_ANOMALY   = 243.8865

EPHEMERIS_TYPE = 0
CLASSIFICATION_TYPE = U
NORAD_CAT_ID   = 66908
ELEMENT_SET_NO = 999
REV_AT_EPOCH   = 1600
BSTAR          = .15925423E-2
MEAN_MOTION_DOT = .211029E-2
MEAN_MOTION_DDOT = 0

CCSDS_OMM_VERS = 2.0
CREATION_DATE  = 
ORIGINATOR     = 

OBJECT_NAME    = SILVERSAT
OBJECT_ID      = 1998-067XV
CENTER_NAME    = EARTH
REF_FRAME      = TEME
TIME_SYSTEM    = UTC
MEAN_ELEMENT_THEORY = SGP/SGP4

EPOCH          = 2026-03-14T22:01:26.980896
MEAN_MOTION    = 15.74646636
ECCENTRICITY   = .00054887
INCLINATION    = 51.6238
RA_OF_ASC_NODE = 38.0433
ARG_OF_PERICENTER = 116.1770
MEAN_ANOMALY   = 243.9794

EPHEMERIS_TYPE = 0
CLASSIFICATION_TYPE = U
NORAD_CAT_ID   = 66909
ELEMENT_SET_NO = 999
REV_AT_EPOCH   = 1601
BSTAR          = .17572386E-2
MEAN_MOTION_DOT = .271074E-2
MEAN_MOTION_DDOT = 0

CCSDS_OMM_VERS = 2.0
CREATION_DATE  = 
ORIGINATOR     = 

OBJECT_NAME    = ISS OBJECT XW
OBJECT_ID      = 1998-067XW
CENTER_NAME    = EARTH
REF_FRAME      = TEME
TIME_SYSTEM    = UTC
MEAN_ELEMENT_THEORY = SGP/SGP4

EPOCH          = 2026-03-14T22:14:01.481856
MEAN_MOTION    = 15.70288950
ECCENTRICITY   = .00053262
INCLINATION    = 51.6237
RA_OF_ASC_NODE = 38.8515
ARG_OF_PERICENTER = 118.2073
MEAN_ANOMALY   = 241.9463

EPHEMERIS_TYPE = 0
CLASSIFICATION_TYPE = U
NORAD_CAT_ID   = 66910
ELEMENT_SET_NO = 999
REV_AT_EPOCH   = 1600
BSTAR          = .143229E-2
MEAN_MOTION_DOT = .181475E-2
MEAN_MOTION_DDOT = 0

CCSDS_OMM_VERS = 2.0
CREATION_DATE  = 
ORIGINATOR     = 

OBJECT_NAME    = ISS OBJECT XX
OBJECT_ID      = 1998-067XX
CENTER_NAME    = EARTH
REF_FRAME      = TEME
TIME_SYSTEM    = UTC
MEAN_ELEMENT_THEORY = SGP/SGP4

EPOCH          = 2026-03-14T21:40:35.579712
MEAN_MOTION    = 15.78504066
ECCENTRICITY   = .00068255
INCLINATION    = 51.6205
RA_OF_ASC_NODE = 37.1744
ARG_OF_PERICENTER = 118.8306
MEAN_ANOMALY   = 241.3381

EPHEMERIS_TYPE = 0
CLASSIFICATION_TYPE = U
NORAD_CAT_ID   = 66911
ELEMENT_SET_NO = 999
REV_AT_EPOCH   = 1601
BSTAR          = .19859153E-2
MEAN_MOTION_DOT = .367666E-2
MEAN_MOTION_DDOT = 0

